NORAD_CAT_ID,OBJECT_NAME,OBJECT_TYPE,EPOCH,MEAN_MOTION,ECCENTRICITY,INCLINATION,RA_OF_ASC_NODE,ARG_OF_PERICENTER,MEAN_ANOMALY,BSTAR,MEAN_MOTION_DOT,MEAN_MOTION_DDOT,TLE_LINE0,TLE_LINE1,TLE_LINE2,SEMIMAJOR_AXIS,PERIOD,APOGEE,PERIGEE,DECAYED
53736.0,STARLINK-4652,PAYLOAD,2023-12-04 02:21:05,15.0883742,0.0001616,53.2179,5.025,86.8757,273.242,0.00059551,9.202e-05,0.0,0 STARLINK-4652,1 53736U 22107AN  23338.09797499  .00009202  00000-0  59551-3 0  9990,2 53736  53.2179   5.0250 0001616  86.8757 273.2420 15.08837420 69160,6917.888,95.438,540.871,538.635,0.0
53736.0,STARLINK-4652,PAYLOAD,2023-12-04 08:42:37,15.0884925,0.0001963,53.2182,3.8413,83.8218,276.2998,0.00097156,0.00015212,0.0,0 STARLINK-4652,1 53736U 22107AN  23338.36293423  .00015212  00000-0  97156-3 0  9999,2 53736  53.2182   3.8413 0001963  83.8218 276.2998 15.08849250 69836,6917.852,95.437,541.075,538.359,0.0
53736.0,STARLINK-4652,PAYLOAD,2023-12-05 02:11:51,15.08861675,0.0001947,53.2193,0.5753,97.4252,262.6961,0.00055628,8.581e-05,0.0,0 STARLINK-4652,1 53736U 22107AN  23339.09156993  .00008581  00000-0  55628-3 0  9999,2 53736  53.2193   0.5753 0001947  97.4252 262.6961 15.08861675 69317,6917.814,95.436,541.026,538.332,0.0
53736.0,STARLINK-4652,PAYLOAD,2023-12-05 08:33:23,15.08864631,0.0002002,53.2188,359.3854,105.7486,254.3727,0.0003113,4.673e-05,0.0,0 STARLINK-4652,1 53736U 22107AN  23339.35652270  .00004673  00000-0  31130-3 0  9997,2 53736  53.2188 359.3854 0002002 105.7486 254.3727 15.08864631 69989,6917.805,95.436,541.055,538.285,0.0
53736.0,STARLINK-4652,PAYLOAD,2023-12-06 09:59:33,15.08827208,0.000194,53.2179,354.6198,115.261,244.8584,-0.00058624,-9.603e-05,0.0,0 STARLINK-4652,1 53736U 22107AN  23340.41636262 -.00009603  00000-0 -58624-3 0  9996,2 53736  53.2179 354.6198 0001940 115.2610 244.8584 15.08827208 69516,6917.919,95.438,541.127,538.442,0.0
53736.0,STARLINK-4652,PAYLOAD,2023-12-07 05:04:11,15.08829615,0.0001497,53.2176,351.0507,95.8093,264.307,-0.00036972,-6.166e-05,0.0,0 STARLINK-4652,1 53736U 22107AN  23341.21123958 -.00006166  00000-0 -36972-3 0  9991,2 53736  53.2176 351.0507 0001497  95.8093 264.3070 15.08829615 69637,6917.912,95.438,540.813,538.742,0.0
53736.0,STARLINK-4652,PAYLOAD,2023-12-07 06:39:34,15.0883226,0.0001631,53.2175,350.7512,110.1539,249.9629,-0.00032716,-5.49e-05,0.0,0 STARLINK-4652,1 53736U 22107AN  23341.27747783 -.00005490  00000-0 -32716-3 0  9996,2 53736  53.2175 350.7512 0001631 110.1539 249.9629 15.08832260 70275,6917.904,95.438,540.897,538.641,0.0
53736.0,STARLINK-4652,PAYLOAD,2023-12-08 08:05:44,15.08835272,0.0001737,53.217,345.9965,105.2003,254.9181,3.5149e-05,2.71e-06,0.0,0 STARLINK-4652,1 53736U 22107AN  23342.33732629  .00000271  00000-0  35149-4 0  9991,2 53736  53.2170 345.9965 0001737 105.2003 254.9181 15.08835272 69808,6917.895,95.438,540.961,538.558,0.0
53736.0,STARLINK-4652,PAYLOAD,2023-12-09 06:21:09,15.08845611,0.000155,53.2172,341.8344,90.668,269.449,0.00049946,7.671e-05,0.0,0 STARLINK-4652,1 53736U 22107AN  23343.26468756  .00007671  00000-0  49946-3 0  9991,2 53736  53.2172 341.8344 0001550  90.6680 269.4490 15.08845611 70575,6917.863,95.437,540.801,538.656,0.0
53736.0,STARLINK-4652,PAYLOAD,2023-12-09 23:50:23,15.08845388,0.0001624,53.2167,338.5642,85.2252,274.8926,0.00017298,2.466e-05,0.0,0 STARLINK-4652,1 53736U 22107AN  23343.99332755  .00002466  00000-0  17298-3 0  9992,2 53736  53.2167 338.5642 0001624  85.2252 274.8926 15.08845388 70058,6917.864,95.437,540.852,538.605,0.0
53736.0,STARLINK-4652,PAYLOAD,2023-12-10 09:22:42,15.08846222,0.0001624,53.2166,336.7798,85.8091,274.3087,0.00014943,2.091e-05,0.0,0 STARLINK-4652,1 53736U 22107AN  23344.39076638  .00002091  00000-0  14943-3 0  9990,2 53736  53.2166 336.7798 0001624  85.8091 274.3087 15.08846222 70743,6917.861,95.437,540.85,538.603,0.0
53736.0,STARLINK-4652,PAYLOAD,2023-12-11 04:27:19,15.08843538,0.000168,53.2168,333.2119,102.0491,258.0689,5.0735e-05,5.2e-06,0.0,0 STARLINK-4652,1 53736U 22107AN  23345.18564509  .00000520  00000-0  50735-4 0  9992,2 53736  53.2168 333.2119 0001680 102.0491 258.0689 15.08843538 70230,6917.87,95.437,540.897,538.572,0.0
53736.0,STARLINK-4652,PAYLOAD,2023-12-12 02:42:43,15.08838857,0.000175,53.2178,329.0456,112.7979,247.3198,3.8777e-05,3.29e-06,0.0,0 STARLINK-4652,1 53736U 22107AN  23346.11300668  .00000329  00000-0  38777-4 0  9999,2 53736  53.2178 329.0456 0001750 112.7979 247.3198 15.08838857 70374,6917.884,95.438,540.96,538.538,0.0
53736.0,STARLINK-4652,PAYLOAD,2023-12-12 05:53:30,15.08840596,0.000157,53.2183,328.4524,103.5922,256.5245,6.0135e-05,6.69e-06,0.0,0 STARLINK-4652,1 53736U 22107AN  23346.24548783  .00000669  00000-0  60135-4 0  9995,2 53736  53.2183 328.4524 0001570 103.5922 256.5245 15.08840596 71026,6917.879,95.438,540.83,538.657,0.0
53736.0,STARLINK-4652,PAYLOAD,2023-12-13 04:08:53,15.08842022,0.0001606,53.2184,324.2923,105.8372,254.2797,0.00012828,1.754e-05,0.0,0 STARLINK-4652,1 53736U 22107AN  23347.17284679  .00001754  00000-0  12828-3 0  9990,2 53736  53.2184 324.2923 0001606 105.8372 254.2797 15.08842022 70536,6917.874,95.437,540.85,538.628,0.0
53736.0,STARLINK-4652,PAYLOAD,2023-12-13 05:44:17,15.08841918,0.0001602,53.2185,323.995,104.2326,255.8844,0.00012556,1.711e-05,0.0,0 STARLINK-4652,1 53736U 22107AN  23347.23908646  .00001711  00000-0  12556-3 0  9995,2 53736  53.2185 323.9950 0001602 104.2326 255.8844 15.08841918 71175,6917.875,95.437,540.848,538.631,0.0
53736.0,STARLINK-4652,PAYLOAD,2023-12-14 03:59:41,15.08838607,0.0001694,53.2184,319.8333,112.0668,248.0504,9.1949e-05,1.176e-05,0.0,0 STARLINK-4652,1 53736U 22107AN  23348.16645026  .00001176  00000-0  91949-4 0  9997,2 53736  53.2184 319.8333 0001694 112.0668 248.0504 15.08838607 70683,6917.885,95.438,540.922,538.578,0.0
53736.0,STARLINK-4652,PAYLOAD,2023-12-15 05:25:51,15.0884503,0.0001527,53.2179,315.0715,98.6084,261.5081,8.5078e-05,1.066e-05,0.0,0 STARLINK-4652,1 53736U 22107AN  23349.22628717  .00001066  00000-0  85078-4 0  9997,2 53736  53.2179 315.0715 0001527  98.6084 261.5081 15.08845030 70841,6917.865,95.437,540.786,538.674,0.0
53736.0,STARLINK-4652,PAYLOAD,2023-12-16 03:41:15,15.08837441,0.0001523,53.2179,310.907,86.0853,274.0313,1.9694e-05,2.5e-07,0.0,0 STARLINK-4652,1 53736U 22107AN  23350.15365598  .00000025  00000-0  19694-4 0  9991,2 53736  53.2179 310.9070 0001523  86.0853 274.0313 15.08837441 70989,6917.888,95.438,540.807,538.7,0.0
53736.0,STARLINK-4652,PAYLOAD,2023-12-17 03:32:02,15.08851635,0.0001724,53.2185,306.4417,78.1823,281.9363,7.7278e-05,9.42e-06,0.0,0 STARLINK-4652,1 53736U 22107AN  23351.14724630  .00000942  00000-0  77278-4 0  9997,2 53736  53.2185 306.4417 0001724  78.1823 281.9363 15.08851635 71134,6917.845,95.437,540.902,538.517,0.0
53736.0,STARLINK-4652,PAYLOAD,2023-12-18 03:22:50,15.08838821,0.0003572,53.2175,301.9795,34.0769,326.0452,0.00048754,7.479e-05,0.0,0 STARLINK-4652,1 53736U 22107AN  23352.14085879  .00007479  00000-0  48754-3 0  9991,2 53736  53.2175 301.9795 0003572  34.0769 326.0452 15.08838821 71283,6917.884,95.438,542.22,537.278,0.0
53736.0,STARLINK-4652,PAYLOAD,2023-12-19 03:13:35,15.088638,0.0001596,53.2172,297.5244,76.7663,283.3507,0.00034947,5.282e-05,0.0,0 STARLINK-4652,1 53736U 22107AN  23353.13443937  .00005282  00000-0  34947-3 0  9993,2 53736  53.2172 297.5244 0001596  76.7663 283.3507 15.08863800 71437,6917.808,95.436,540.777,538.569,0.0
53736.0,STARLINK-4652,PAYLOAD,2023-12-20 01:29:00,15.08836113,0.0001547,53.2167,293.3627,82.7805,277.3363,-7.7873e-05,-1.527e-05,0.0,0 STARLINK-4652,1 53736U 22107AN  23354.06181108 -.00001527  00000-0 -77873-4 0  9991,2 53736  53.2167 293.3627 0001547  82.7805 277.3363 15.08836113 71576,6917.892,95.438,540.827,538.687,0.0
53736.0,STARLINK-4652,PAYLOAD,2023-12-21 02:55:10,15.08851547,0.0001394,53.2164,288.6034,111.4149,248.6992,7.2016e-05,8.59e-06,0.0,0 STARLINK-4652,1 53736U 22107AN  23355.12164484  .00000859  00000-0  72016-4 0  9996,2 53736  53.2164 288.6034 0001394 111.4149 248.6992 15.08851547 71738,6917.845,95.437,540.674,538.746,0.0
53736.0,STARLINK-4652,PAYLOAD,2023-12-22 02:45:58,15.08831011,0.0001389,53.2167,284.1442,89.136,270.9791,6.3225e-05,7.18e-06,0.0,0 STARLINK-4652,1 53736U 22107AN  23356.11526230  .00000718  00000-0  63225-4 0  9993,2 53736  53.2167 284.1442 0001389  89.1360 270.9791 15.08831011 71880,6917.908,95.438,540.734,538.812,0.0
53736.0,STARLINK-4652,PAYLOAD,2023-12-23 02:36:45,15.08842452,0.0001401,53.2162,279.6846,87.7283,272.3869,0.00060215,9.309e-05,0.0,0 STARLINK-4652,1 53736U 22107AN  23357.10886343  .00009309  00000-0  60215-3 0  9997,2 53736  53.2162 279.6846 0001401  87.7283 272.3869 15.08842452 72036,6917.873,95.437,540.707,538.769,0.0
53736.0,STARLINK-4652,PAYLOAD,2023-12-23 04:12:08,15.08845239,0.0001431,53.2162,279.3868,89.8834,270.2322,0.00069396,0.00010775,0.0,0 STARLINK-4652,1 53736U 22107AN  23357.17510311  .00010775  00000-0  69396-3 0  9991,2 53736  53.2162 279.3868 0001431  89.8834 270.2322 15.08845239 72672,6917.864,95.437,540.719,538.739,0.0
53736.0,STARLINK-4652,PAYLOAD,2023-12-24 02:27:32,15.08851014,0.0001586,53.2157,275.2256,77.3499,282.7671,0.00047324,7.254e-05,0.0,0 STARLINK-4652,1 53736U 22107AN  23358.10246286  .00007254  00000-0  47324-3 0  9997,2 53736  53.2157 275.2256 0001586  77.3499 282.7671 15.08851014 72181,6917.847,95.437,540.809,538.615,0.0
53736.0,STARLINK-4652,PAYLOAD,2023-12-25 00:42:56,15.08847024,0.0001827,53.2163,271.0627,67.8987,292.2199,0.00023392,3.437e-05,0.0,0 STARLINK-4652,1 53736U 22107AN  23359.02982370  .00003437  00000-0  23392-3 0  9998,2 53736  53.2163 271.0627 0001827  67.8987 292.2199 15.08847024 72321,6917.859,95.437,540.988,538.46,0.0
53736.0,STARLINK-4652,PAYLOAD,2023-12-25 21:22:57,15.08843189,0.0001451,53.2166,267.1981,86.4704,273.6454,9.8944e-05,1.287e-05,0.0,0 STARLINK-4652,1 53736U 22107AN  23359.89094379  .00001287  00000-0  98944-4 0  9993,2 53736  53.2166 267.1981 0001451  86.4704 273.6454 15.08843189 73089,6917.871,95.437,540.739,538.732,0.0
